[{"OBJECT_NAME":"STARLINK-5037","OBJECT_ID":"2022-119L","EPOCH":"2026-03-09T22:23:46.104864","MEAN_MOTION":15.08829998,"ECCENTRICITY":0.00011991,"INCLINATION":53.2185,"RA_OF_ASC_NODE":322.8658,"ARG_OF_PERICENTER":95.8636,"MEAN_ANOMALY":264.2493,"EPHEMERIS_TYPE":0,"CLASSIFICATION_TYPE":"U","NORAD_CAT_ID":53896,"ELEMENT_SET_NO":999,"REV_AT_EPOCH":19172,"BSTAR":2.0201437e-5,"MEAN_MOTION_DOT":3.4e-7,"MEAN_MOTION_DDOT":0},{"OBJECT_NAME":"PEGASUS R\/B","OBJECT_ID":"2019-068B","EPOCH":"2026-03-09T22:22:48.049248","MEAN_MOTION":15.04682366,"ECCENTRICITY":0.00118062,"INCLINATION":26.9924,"RA_OF_ASC_NODE":328.8145,"ARG_OF_PERICENTER":174.3111,"MEAN_ANOMALY":185.7586,"EPHEMERIS_TYPE":0,"CLASSIFICATION_TYPE":"U","NORAD_CAT_ID":44629,"ELEMENT_SET_NO":999,"REV_AT_EPOCH":35103,"BSTAR":0.00027730034,"MEAN_MOTION_DOT":4.233e-5,"MEAN_MOTION_DDOT":0}]
